     3.02           N: GNSS NAV DATA    R                   RINEX VERSION / TYPE
NetR9 5.01          RIGTC, GO PECNY     20160106 001630 UTC PGM / RUN BY / DATE 
    17    17  1851     3                                    LEAP SECONDS        
GLONASS NAVIGATION DATA FROM STATION GOP7 (RIGTC, GO PECNY) COMMENT             
                                                            END OF HEADER       
R05 2016 01 05 16 15 00  .275205820799D-05 -.909494701773D-12  .576000000000D+05
      .121670327148D+05  .253506851196D+01  .000000000000D+00  .000000000000D+00
     -.472681347656D+04  .160748577118D+01  .186264514923D-08  .100000000000D+01
      .219011884766D+05 -.105990982056D+01 -.186264514923D-08  .000000000000D+00
R13 2016 01 05 16 15 00  .117598101497D-04  .000000000000D+00  .576000000000D+05
     -.746106884766D+04 -.240899944305D+01  .931322574615D-09  .000000000000D+00
      .139609726563D+05  .131486034393D+01  .279396772385D-08 -.200000000000D+01
      .199895878906D+05 -.181625366211D+01  .000000000000D+00  .000000000000D+00
R22 2016 01 05 16 15 00  .187333673239D-03  .909494701773D-12  .576000000000D+05
     -.105204941406D+05  .212330818176D+00  .000000000000D+00  .000000000000D+00
     -.257065185547D+04 -.315642738342D+01  .931322574615D-09 -.300000000000D+01
      .231052563477D+05 -.242578506470D+00 -.186264514923D-08  .000000000000D+00
R03 2016 01 05 16 15 00  .591930001974D-04  .000000000000D+00  .576000000000D+05
      .185433691406D+05 -.681800842285D+00  .000000000000D+00  .000000000000D+00
      .161662275391D+05 -.630486488342D+00  .186264514923D-08  .500000000000D+01
     -.665955761719D+04 -.341628932953D+01  .186264514923D-08  .000000000000D+00
R23 2016 01 05 16 15 00 -.670170411468D-04 -.363797880709D-11  .576000000000D+05
     -.900613085938D+04  .304375648499D+00  .931322574615D-09  .000000000000D+00
      .169887973633D+05 -.228099441528D+01  .279396772385D-08  .300000000000D+01
      .167593779297D+05  .247466850281D+01  .000000000000D+00  .000000000000D+00
R06 2016 01 05 16 15 00  .813798978925D-04  .000000000000D+00  .582600000000D+05
     -.541645458984D+04  .224211215973D+01  .000000000000D+00  .000000000000D+00
     -.150394340820D+05  .154693222046D+01  .000000000000D+00 -.400000000000D+01
      .198686088867D+05  .177763366699D+01 -.279396772385D-08  .000000000000D+00
R16 2016 01 05 16 15 00  .274898484349D-04  .181898940355D-11  .587400000000D+05
      .207004267578D+05  .701786994934D+00 -.931322574615D-09  .000000000000D+00
     -.135473007812D+05 -.549724578857D+00 -.931322574615D-09 -.100000000000D+01
     -.641276708984D+04  .343383693695D+01  .000000000000D+00  .000000000000D+00
R15 2016 01 05 16 45 00  .609550625086D-04  .000000000000D+00  .594000000000D+05
      .177834809570D+05 -.215798664093D+01  .000000000000D+00  .000000000000D+00
     -.189006445312D+04  .125069713593D+01  .279396772385D-08  .000000000000D+00
      .181524375000D+05  .225539970398D+01 -.931322574615D-09  .000000000000D+00
R05 2016 01 05 16 45 00  .274926424026D-05 -.909494701773D-12  .594000000000D+05
      .166535224609D+05  .240105533600D+01  .000000000000D+00  .000000000000D+00
     -.231099218750D+04  .106903743744D+01  .186264514923D-08  .100000000000D+01
      .191703579102D+05 -.195458602905D+01 -.931322574615D-09  .000000000000D+00
R14 2016 01 05 16 45 00  .264867208898D-03  .454747350886D-11  .594000000000D+05
      .581038720703D+04 -.266696643829D+01  .000000000000D+00  .000000000000D+00
      .873264160156D+04  .175034236908D+01  .279396772385D-08 -.700000000000D+01
      .232369663086D+05  .279998779297D-02 -.931322574615D-09  .000000000000D+00
R04 2016 01 05 16 45 00  .152023509145D-03  .909494701773D-12  .594000000000D+05
      .234136127930D+05  .697644233704D+00  .000000000000D+00  .000000000000D+00
      .871639941406D+04  .170704841614D+00  .279396772385D-08  .600000000000D+01
      .513150732422D+04 -.347854137421D+01  .000000000000D+00  .000000000000D+00
R13 2016 01 05 16 45 00  .117588788271D-04  .000000000000D+00  .594000000000D+05
     -.112114785156D+05 -.173545932770D+01  .186264514923D-08  .000000000000D+00
      .163987543945D+05  .135051727295D+01  .279396772385D-08 -.200000000000D+01
      .159890668945D+05 -.259986019135D+01  .000000000000D+00  .000000000000D+00
R23 2016 01 05 16 45 00 -.670244917274D-04 -.363797880709D-11  .594000000000D+05
     -.877512646484D+04 -.722808837891D-01  .931322574615D-09  .000000000000D+00
      .123673745117D+05 -.281141090393D+01  .279396772385D-08  .300000000000D+01
      .205082514648D+05  .166368961334D+01  .000000000000D+00  .000000000000D+00
R22 2016 01 05 16 45 00  .187336467206D-03  .909494701773D-12  .594000000000D+05
     -.105593701172D+05 -.247304916382D+00  .000000000000D+00  .000000000000D+00
     -.813087304687D+04 -.297034835815D+01  .000000000000D+00 -.300000000000D+01
      .217828491211D+05 -.121689319611D+01 -.279396772385D-08  .000000000000D+00
R06 2016 01 05 16 45 00  .813808292150D-04  .000000000000D+00  .594000000000D+05
     -.905358398437D+03  .273621177673D+01  .000000000000D+00  .000000000000D+00
     -.123990336914D+05  .135035896301D+01  .000000000000D+00 -.400000000000D+01
      .222581210938D+05  .860026359558D+00 -.279396772385D-08  .000000000000D+00
R16 2016 01 05 16 45 00  .274935737252D-04  .909494701773D-12  .594000000000D+05
      .212281826172D+05 -.101356506348D+00 -.931322574615D-09  .000000000000D+00
     -.142218046875D+05 -.160645484924D+00  .000000000000D+00 -.100000000000D+01
     -.647158203125D+02  .357400894165D+01 -.931322574615D-09  .000000000000D+00
R24 2016 01 05 16 45 00 -.132526271045D-03  .000000000000D+00  .602100000000D+05
     -.228756884766D+04  .123634338379D+00  .931322574615D-09  .000000000000D+00
      .241090234375D+05 -.110660362244D+01  .279396772385D-08  .200000000000D+01
      .798512158203D+04  .336814880371D+01  .931322574615D-09  .000000000000D+00
R15 2016 01 05 17 15 00  .609559938312D-04  .000000000000D+00  .612000000000D+05
      .137436992188D+05 -.228096103668D+01  .000000000000D+00  .000000000000D+00
      .918396972656D+03  .185937690735D+01  .279396772385D-08  .000000000000D+00
      .214561748047D+05  .139180183411D+01 -.931322574615D-09  .000000000000D+00
R05 2016 01 05 17 15 00  .274740159512D-05 -.909494701773D-12  .612000000000D+05
      .206379414062D+05  .198042774200D+01  .000000000000D+00  .000000000000D+00
     -.873180175781D+03  .538898468018D+00  .279396772385D-08  .100000000000D+01
      .149558159180D+05 -.269776725769D+01  .000000000000D+00  .000000000000D+00
R14 2016 01 05 17 15 00  .264875590801D-03  .454747350886D-11  .612000000000D+05
      .132229638672D+04 -.228123188019D+01  .931322574615D-09  .000000000000D+00
      .121889487305D+05  .205350399017D+01  .279396772385D-08 -.700000000000D+01
      .223420625000D+05 -.990859985352D+00  .000000000000D+00  .000000000000D+00
R06 2016 01 05 17 15 00  .813817605376D-04  .000000000000D+00  .612000000000D+05
      .428808642578D+04  .298848342896D+01  .000000000000D+00  .000000000000D+00
     -.102868671875D+05  .973567008972D+00  .931322574615D-09 -.400000000000D+01
      .229243105469D+05 -.124720573425D+00 -.186264514923D-08  .000000000000D+00
R04 2016 01 05 17 15 00  .152025371790D-03  .909494701773D-12  .612000000000D+05
      .239571665039D+05 -.113196372986D+00  .000000000000D+00  .000000000000D+00
      .865499560547D+04 -.203011512756D+00  .186264514923D-08  .600000000000D+01
     -.124741601563D+04 -.356310081482D+01  .931322574615D-09  .000000000000D+00
R23 2016 01 05 17 15 00 -.670319423079D-04 -.363797880709D-11  .612000000000D+05
     -.932570947266D+04 -.547245025635D+00  .931322574615D-09  .000000000000D+00
      .703831396484D+04 -.305896282196D+01  .186264514923D-08  .300000000000D+01
      .226712490234D+05  .724024772644D+00 -.931322574615D-09  .000000000000D+00
R16 2016 01 05 17 15 00  .274963676929D-04  .909494701773D-12  .612000000000D+05
      .204170981445D+05 -.769413948059D+00 -.931322574615D-09  .000000000000D+00
     -.140022241211D+05  .432818412781D+00  .931322574615D-09 -.100000000000D+01
      .628824511719D+04  .343918323517D+01 -.931322574615D-09  .000000000000D+00
R24 2016 01 05 17 15 00 -.132527202368D-03  .000000000000D+00  .612000000000D+05
     -.232186035156D+04 -.195156097412D+00  .186264514923D-08  .000000000000D+00
      .214015009766D+05 -.187258625031D+01  .279396772385D-08  .200000000000D+01
      .136602739258D+05  .289654254913D+01  .000000000000D+00  .000000000000D+00
R15 2016 01 05 17 45 00  .609569251537D-04  .000000000000D+00  .630000000000D+05
      .974378466797D+04 -.211919498444D+01  .931322574615D-09  .000000000000D+00
      .473262207031D+04  .235014343262D+01  .279396772385D-08  .000000000000D+00
      .230991699219D+05  .422202110291D+00 -.931322574615D-09  .000000000000D+00
R05 2016 01 05 17 45 00  .274833291769D-05 -.909494701773D-12  .630000000000D+05
      .236351352539D+05  .131457901001D+01  .000000000000D+00  .000000000000D+00
     -.304055664063D+03  .119483947754D+00  .279396772385D-08  .100000000000D+01
      .958409033203D+04 -.323200607300D+01  .000000000000D+00  .000000000000D+00
R06 2016 01 05 17 45 00  .813817605376D-04  .000000000000D+00  .630000000000D+05
      .967668701172D+04  .294810199738D+01  .000000000000D+00  .000000000000D+00
     -.894660205078D+04  .509863853455D+00  .186264514923D-08 -.400000000000D+01
      .218146484375D+05 -.110028457642D+01 -.186264514923D-08  .000000000000D+00
R14 2016 01 05 17 45 00  .264883041382D-03  .363797880709D-11  .630000000000D+05
     -.229022119141D+04 -.171003150940D+01  .186264514923D-08  .000000000000D+00
      .159733764648D+05  .210488700867D+01  .186264514923D-08 -.700000000000D+01
      .197154462891D+05 -.190874576569D+01  .000000000000D+00  .000000000000D+00
